[{"OBJECT_NAME":"STARLINK-4748","OBJECT_ID":"2022-114F","EPOCH":"2026-03-09T19:56:04.587360","MEAN_MOTION":15.0883633,"ECCENTRICITY":0.00017416,"INCLINATION":53.2169,"RA_OF_ASC_NODE":258.4753,"ARG_OF_PERICENTER":101.786,"MEAN_ANOMALY":258.3328,"EPHEMERIS_TYPE":0,"CLASSIFICATION_TYPE":"U","NORAD_CAT_ID":53823,"ELEMENT_SET_NO":999,"REV_AT_EPOCH":19348,"BSTAR":5.835445e-6,"MEAN_MOTION_DOT":-1.95e-6,"MEAN_MOTION_DDOT":0},{"OBJECT_NAME":"SL-8 DEB","OBJECT_ID":"1976-098E","EPOCH":"2026-03-09T08:07:12.416160","MEAN_MOTION":15.06605169,"ECCENTRICITY":0.00102283,"INCLINATION":74.028,"RA_OF_ASC_NODE":26.283,"ARG_OF_PERICENTER":218.296,"MEAN_ANOMALY":294.2383,"EPHEMERIS_TYPE":0,"CLASSIFICATION_TYPE":"U","NORAD_CAT_ID":18504,"ELEMENT_SET_NO":999,"REV_AT_EPOCH":18055,"BSTAR":0.0011587434,"MEAN_MOTION_DOT":0.00017191,"MEAN_MOTION_DDOT":0}]
